*******************************************************************************
JPL/HORIZONS               489 Comacina (A902 RD)          2023-Sep-04 11:06:38
Rec #:     489 (+COV) Soln.date: 2023-Aug-23_22:01:36   # obs: 7611 (1902-2023)
 
IAU76/J2000 helio. ecliptic osc. elements (au, days, deg., period=Julian yrs):
 
  EPOCH=  2456510.5 ! 2013-Aug-06.00 (TDB)         Residual RMS= .25226
   EC= .04423187279947624  QR= 3.013894578733472   TP= 2455994.538422469
   OM= 166.9061674029945   W=  11.70621196640096   IN= 12.9960807907412
   A= 3.153374226404963    MA= 90.81512087427629   ADIST= 3.292853874076454
   PER= 5.59979            N= .176011402           ANGMOM= .030517148
   DAN= 3.01655            DDN= 3.28969            L= 178.3204999
   B= 2.6151754            MOID= 2.01841998        TP= 2012-Mar-08.0384224690
 
Asteroid physical parameters (km, seconds, rotational period in hours):
   GM= n.a.                RAD= 69.695             ROTPER= 9.02
   H= 8.68                 G= .150                 B-V= .697
                           ALBEDO= .0427           STYP= C

ASTEROID comments: 
1: soln ref.= JPL#132, OCC=0
2: source=ORB
*******************************************************************************


*******************************************************************************
Ephemeris / API_USER Mon Sep  4 11:06:38 2023 Pasadena, USA      / Horizons
*******************************************************************************
Target body name: 489 Comacina (A902 RD)          {source: JPL#132}
Center body name: Solar System Barycenter (0)     {source: DE441}
Center-site name: BODY CENTER
*******************************************************************************
Start time      : A.D. 2023-Aug-12 00:00:00.0000 TDB
Stop  time      : A.D. 2023-Aug-13 00:00:00.0000 TDB
Step-size       : 2880 minutes
*******************************************************************************
Center geodetic : 0.0, 0.0, 0.0                   {E-lon(deg),Lat(deg),Alt(km)}
Center cylindric: 0.0, 0.0, 0.0                   {E-lon(deg),Dxy(km),Dz(km)}
Center radii    : (undefined)
Small perturbers: Yes                             {source: SB441-N16}
Output units    : KM-S
Calendar mode   : Mixed Julian/Gregorian
Output type     : GEOMETRIC cartesian states
Output format   : 2 (position and velocity)
Reference frame : Ecliptic of J2000.0
*******************************************************************************
Initial IAU76/J2000 heliocentric ecliptic osculating elements (au, days, deg.):
  EPOCH=  2456510.5 ! 2013-Aug-06.00 (TDB)         Residual RMS= .25226        
   EC= .04423187279947624  QR= 3.013894578733472   TP= 2455994.538422469       
   OM= 166.9061674029945   W=  11.70621196640096   IN= 12.9960807907412        
  Equivalent ICRF heliocentric cartesian coordinates (au, au/d):
   X= 2.647150495858991E-01  Y=-3.092364737864549E+00  Z=-6.019715635440065E-01
  VX= 9.641951843728751E-03 VY= 4.692788574763599E-04 VZ=-4.114189632540027E-04
Asteroid physical parameters (km, seconds, rotational period in hours):        
   GM= n.a.                RAD= 69.695             ROTPER= 9.02                
   H= 8.68                 G= .150                 B-V= .697                   
                           ALBEDO= .0427           STYP= C                     
*******************************************************************************
JDTDB
   X     Y     Z
   VX    VY    VZ
*******************************************************************************
$$SOE
2460168.500000000 = A.D. 2023-Aug-12 00:00:00.0000 TDB 
 X =-4.338124338306368E+08 Y =-1.150093511980276E+08 Z = 4.875567206350883E+07
 VX= 4.513019800896722E+00 VY=-1.662056651783099E+01 VZ= 3.489484059455098E+00
$$EOE
*******************************************************************************
 
TIME

  Barycentric Dynamical Time ("TDB" or T_eph) output was requested. This
continuous coordinate time is equivalent to the relativistic proper time
of a clock at rest in a reference frame co-moving with the solar system
barycenter but outside the system's gravity well. It is the independent
variable in the solar system relativistic equations of motion.

  TDB runs at a uniform rate of one SI second per second and is independent
of irregularities in Earth's rotation.
 
CALENDAR SYSTEM

  Mixed calendar mode was active such that calendar dates after AD 1582-Oct-15
(if any) are in the modern Gregorian system. Dates prior to 1582-Oct-5 (if any)
are in the Julian calendar system, which is automatically extended for dates
prior to its adoption on 45-Jan-1 BC.  The Julian calendar is useful for
matching historical dates. The Gregorian calendar more accurately corresponds
to the Earth's orbital motion and seasons. A "Gregorian-only" calendar mode is
available if such physical events are the primary interest.

REFERENCE FRAME AND COORDINATES

  Ecliptic at the standard reference epoch

    Reference epoch: J2000.0
    X-Y plane: adopted Earth orbital plane at the reference epoch
               Note: IAU76 obliquity of 84381.448 arcseconds wrt ICRF X-Y plane
    X-axis   : ICRF
    Z-axis   : perpendicular to the X-Y plane in the directional (+ or -) sense
               of Earth's north pole at the reference epoch.

  Symbol meaning:

    JDTDB    Julian Day Number, Barycentric Dynamical Time
      X      X-component of position vector (km)
      Y      Y-component of position vector (km)
      Z      Z-component of position vector (km)
      VX     X-component of velocity vector (km/sec)                           
      VY     Y-component of velocity vector (km/sec)                           
      VZ     Z-component of velocity vector (km/sec)                           

ABERRATIONS AND CORRECTIONS

 Geometric state vectors have NO corrections or aberrations applied.

Computations by ...

    Solar System Dynamics Group, Horizons On-Line Ephemeris System
    4800 Oak Grove Drive, Jet Propulsion Laboratory
    Pasadena, CA  91109   USA

    General site: https://ssd.jpl.nasa.gov/
    Mailing list: https://ssd.jpl.nasa.gov/email_list.html
    System news : https://ssd.jpl.nasa.gov/horizons/news.html
    User Guide  : https://ssd.jpl.nasa.gov/horizons/manual.html
    Connect     : browser        https://ssd.jpl.nasa.gov/horizons/app.html#/x
                  API            https://ssd-api.jpl.nasa.gov/doc/horizons.html
                  command-line   telnet ssd.jpl.nasa.gov 6775
                  e-mail/batch   https://ssd.jpl.nasa.gov/ftp/ssd/hrzn_batch.txt
                  scripts        https://ssd.jpl.nasa.gov/ftp/ssd/SCRIPTS
    Author      : Jon.D.Giorgini@jpl.nasa.gov
*******************************************************************************
